[
    {
        "Altitude(m)": 566947.9560903902,
        "Argument of Periapsis(deg)": 0.033114955553567506,
        "Eccentricity": 0.0,
        "Inclination(deg)": 53.0,
        "Latitude(deg)": -41.03644634873015,
        "Longitude(deg)": 170.2959877388118,
        "Mean Anomaly(deg)": -54.99653566211215,
        "RAAN(deg)": 314.9507168426401,
        "Satellite Name": "Starlink Shell 1 1401",
        "Satellite Number": 1401,
        "Semi-Major Axis(m)": 6931778.249405717,
        "Time(s)": 950
    },
    {
        "Altitude(m)": 566790.3903995021,
        "Argument of Periapsis(deg)": 0.03346353403307874,
        "Eccentricity": 0.0,
        "Inclination(deg)": 53.0,
        "Latitude(deg)": -40.65524104105172,
        "Longitude(deg)": 170.90916205181657,
        "Mean Anomaly(deg)": -54.369704458555304,
        "RAAN(deg)": 314.9501980725626,
        "Satellite Name": "Starlink Shell 1 1401",
        "Satellite Number": 1401,
        "Semi-Major Axis(m)": 6931778.249405717,
        "Time(s)": 960
    },
    {
        "Altitude(m)": 566631.3397555535,
        "Argument of Periapsis(deg)": 0.03381211251258998,
        "Eccentricity": 0.0,
        "Inclination(deg)": 53.0,
        "Latitude(deg)": -40.270334757765475,
        "Longitude(deg)": 171.51491446687874,
        "Mean Anomaly(deg)": -53.742873254998656,
        "RAAN(deg)": 314.94967930248515,
        "Satellite Name": "Starlink Shell 1 1401",
        "Satellite Number": 1401,
        "Semi-Major Axis(m)": 6931778.249405717,
        "Time(s)": 970
    },
    {
        "Altitude(m)": 566470.8661484892,
        "Argument of Periapsis(deg)": 0.034160690992101214,
        "Eccentricity": 0.0,
        "Inclination(deg)": 53.0,
        "Latitude(deg)": -39.881816867953,
        "Longitude(deg)": 172.1133595022061,
        "Mean Anomaly(deg)": -53.11604205144196,
        "RAAN(deg)": 314.94916053240763,
        "Satellite Name": "Starlink Shell 1 1401",
        "Satellite Number": 1401,
        "Semi-Major Axis(m)": 6931778.249405717,
        "Time(s)": 980
    },
    {
        "Altitude(m)": 566309.0320567709,
        "Argument of Periapsis(deg)": 0.034509269471612446,
        "Eccentricity": 0.0,
        "Inclination(deg)": 53.0,
        "Latitude(deg)": -39.48977492268503,
        "Longitude(deg)": 172.70461346753913,
        "Mean Anomaly(deg)": -52.48921084788521,
        "RAAN(deg)": 314.9486417623302,
        "Satellite Name": "Starlink Shell 1 1401",
        "Satellite Number": 1401,
        "Semi-Major Axis(m)": 6931778.249405717,
        "Time(s)": 990
    }
]